NORAD_CAT_ID,OBJECT_NAME,OBJECT_TYPE,EPOCH,MEAN_MOTION,ECCENTRICITY,INCLINATION,RA_OF_ASC_NODE,ARG_OF_PERICENTER,MEAN_ANOMALY,BSTAR,MEAN_MOTION_DOT,MEAN_MOTION_DDOT,TLE_LINE0,TLE_LINE1,TLE_LINE2,SEMIMAJOR_AXIS,PERIOD,APOGEE,PERIGEE,DECAYED
53991.0,STARLINK-5118,PAYLOAD,2024-05-01 09:20:31,15.08845864,0.0001538,53.2194,4.5745,92.7435,267.3733,0.00011503,1.543e-05,0.0,0 STARLINK-5118,1 53991U 22125AD  24122.38924852  .00001543  00000-0  11503-3 0  9997,2 53991  53.2194   4.5745 0001538  92.7435 267.3733 15.08845864 87347,6917.862,95.437,540.791,538.663,0.0
53991.0,STARLINK-5118,PAYLOAD,2024-05-01 22:03:35,15.08846099,0.0001587,53.2194,2.1958,83.5166,276.6007,0.00012795,1.749e-05,0.0,0 STARLINK-5118,1 53991U 22125AD  24122.91916627  .00001749  00000-0  12795-3 0  9999,2 53991  53.2194   2.1958 0001587  83.5166 276.6007 15.08846099 87427,6917.862,95.437,540.825,538.629,0.0
53991.0,STARLINK-5118,PAYLOAD,2024-05-02 01:14:22,15.08847939,0.0001496,53.2186,1.6002,84.0003,276.116,0.000107,1.416e-05,0.0,0 STARLINK-5118,1 53991U 22125AD  24123.05164500  .00001416  00000-0  10700-3 0  9995,2 53991  53.2186   1.6002 0001496  84.0003 276.1160 15.08847939 87527,6917.856,95.437,540.756,538.686,0.0
53991.0,STARLINK-5118,PAYLOAD,2024-05-02 09:11:18,15.0883836,0.0001501,53.2181,0.1114,83.8442,276.2721,1.5433e-05,-4.2e-07,0.0,0 STARLINK-5118,1 53991U 22125AD  24123.38285268 -.00000042  00000-0  15433-4 0  9990,2 53991  53.2181   0.1114 0001501  83.8442 276.2721 15.08838360 87578,6917.885,95.438,540.789,538.712,0.0
53991.0,STARLINK-5118,PAYLOAD,2024-05-03 15:23:38,15.08841517,0.0001854,53.2167,354.4649,83.2298,276.8905,-8.5982e-06,-4.25e-06,0.0,0 STARLINK-5118,1 53991U 22125AD  24124.64141220 -.00000425  00000-0 -85982-5 0  9992,2 53991  53.2167 354.4649 0001854  83.2298 276.8905 15.08841517 87684,6917.876,95.437,541.023,538.458,0.0
53991.0,STARLINK-5118,PAYLOAD,2024-05-03 20:09:47,15.08836851,0.0001479,53.2184,353.5714,92.8052,267.3109,-4.0801e-05,-9.37e-06,0.0,0 STARLINK-5118,1 53991U 22125AD  24124.84013518 -.00000937  00000-0 -40801-4 0  9990,2 53991  53.2184 353.5714 0001479  92.8052 267.3109 15.08836851 87791,6917.89,95.438,540.778,538.732,0.0
53991.0,STARLINK-5118,PAYLOAD,2024-05-03 21:45:10,15.08839619,0.0001345,53.2179,353.2747,89.0285,271.0861,-8.4931e-05,-1.639e-05,0.0,0 STARLINK-5118,1 53991U 22125AD  24124.90637515 -.00001639  00000-0 -84931-4 0  9998,2 53991  53.2179 353.2747 0001345  89.0285 271.0861 15.08839619 87721,6917.882,95.438,540.677,538.816,0.0
53991.0,STARLINK-5118,PAYLOAD,2024-05-04 21:35:57,15.0884925,0.0001287,53.2182,348.8147,80.6852,279.4286,2.7394e-06,-2.44e-06,0.0,0 STARLINK-5118,1 53991U 22125AD  24125.89996900 -.00000244  00000-0  27394-5 0  9994,2 53991  53.2182 348.8147 0001287  80.6852 279.4286 15.08849250 87951,6917.852,95.437,540.607,538.827,0.0
53991.0,STARLINK-5118,PAYLOAD,2024-05-05 15:05:12,15.08837986,0.0001356,53.2183,345.5437,91.3484,268.7664,0.00013407,1.846e-05,0.0,0 STARLINK-5118,1 53991U 22125AD  24126.62861249  .00001846  00000-0  13407-3 0  9999,2 53991  53.2183 345.5437 0001356  91.3484 268.7664 15.08837986 87982,6917.887,95.438,540.69,538.813,0.0
53991.0,STARLINK-5118,PAYLOAD,2024-05-05 21:26:44,15.08841328,0.0001339,53.2182,344.3551,88.6016,271.513,0.00015481,2.177e-05,0.0,0 STARLINK-5118,1 53991U 22125AD  24126.89357031  .00002177  00000-0  15481-3 0  9999,2 53991  53.2182 344.3551 0001339  88.6016 271.5130 15.08841328 88106,6917.876,95.437,540.668,538.815,0.0
53991.0,STARLINK-5118,PAYLOAD,2024-05-06 06:59:03,15.08840766,0.000122,53.2167,342.5684,80.1635,279.9494,0.00011673,1.57e-05,0.0,0 STARLINK-5118,1 53991U 22125AD  24127.29101181  .00001570  00000-0  11673-3 0  9992,2 53991  53.2167 342.5684 0001220  80.1635 279.9494 15.08840766 88086,6917.878,95.438,540.587,538.899,0.0
53991.0,STARLINK-5118,PAYLOAD,2024-05-06 21:17:31,15.088477,0.0001106,53.2159,339.893,74.6576,285.4538,8.1924e-05,1.017e-05,0.0,0 STARLINK-5118,1 53991U 22125AD  24127.88716658  .00001017  00000-0  81924-4 0  9991,2 53991  53.2159 339.8930 0001106  74.6576 285.4538 15.08847700 88171,6917.857,95.437,540.487,538.957,0.0
53991.0,STARLINK-5118,PAYLOAD,2024-05-07 13:11:23,15.0883979,0.0001745,53.2183,336.9203,88.002,272.1172,-7.4444e-06,-4.07e-06,0.0,0 STARLINK-5118,1 53991U 22125AD  24128.54957528 -.00000407  00000-0 -74444-5 0  9992,2 53991  53.2183 336.9203 0001745  88.0020 272.1172 15.08839790 88358,6917.881,95.438,540.953,538.539,0.0
53991.0,STARLINK-5118,PAYLOAD,2024-05-07 21:08:19,15.08832338,0.0001256,53.2173,335.4325,77.414,282.6993,-5.4655e-05,-1.157e-05,0.0,0 STARLINK-5118,1 53991U 22125AD  24128.88078106 -.00001157  00000-0 -54655-4 0  9999,2 53991  53.2173 335.4325 0001256  77.4140 282.6993 15.08832338 88402,6917.904,95.438,540.638,538.9,0.0
53991.0,STARLINK-5118,PAYLOAD,2024-05-08 06:40:38,15.08837186,0.0001318,53.2186,333.65,87.1718,272.9425,-5.5815e-05,-1.176e-05,0.0,0 STARLINK-5118,1 53991U 22125AD  24129.27821987 -.00001176  00000-0 -55815-4 0  9996,2 53991  53.2186 333.6500 0001318  87.1718 272.9425 15.08837186 88384,6917.889,95.438,540.666,538.842,0.0
53991.0,STARLINK-5118,PAYLOAD,2024-05-08 20:59:05,15.0884664,9.89e-05,53.2165,330.9728,91.7538,268.3567,7.8896e-05,9.68e-06,0.0,0 STARLINK-5118,1 53991U 22125AD  24129.87437122  .00000968  00000-0  78896-4 0  9996,2 53991  53.2165 330.9728 0000989  91.7538 268.3567 15.08846640 88557,6917.86,95.437,540.409,539.041,0.0
53991.0,STARLINK-5118,PAYLOAD,2024-05-08 22:34:28,15.08846305,0.0001006,53.2165,330.6752,87.5308,272.5799,7.6602e-05,9.32e-06,0.0,0 STARLINK-5118,1 53991U 22125AD  24129.94061157  .00000932  00000-0  76602-4 0  9999,2 53991  53.2165 330.6752 0001006  87.5308 272.5799 15.08846305 88484,6917.861,95.437,540.422,539.03,0.0
53991.0,STARLINK-5118,PAYLOAD,2024-05-09 06:31:24,15.08843819,0.0001004,53.2168,329.1882,83.1481,276.9625,5.4535e-05,5.8e-06,0.0,0 STARLINK-5118,1 53991U 22125AD  24130.27181468  .00000580  00000-0  54535-4 0  9995,2 53991  53.2168 329.1882 0001004  83.1481 276.9625 15.08843819 88614,6917.869,95.437,540.428,539.039,0.0
53991.0,STARLINK-5118,PAYLOAD,2024-05-09 22:25:15,15.08853771,0.0001032,53.2175,326.2138,91.1527,268.9584,0.00026757,3.975e-05,0.0,0 STARLINK-5118,1 53991U 22125AD  24130.93420522  .00003975  00000-0  26757-3 0  9990,2 53991  53.2175 326.2138 0001032  91.1527 268.9584 15.08853771 88630,6917.838,95.437,540.417,538.989,0.0
53991.0,STARLINK-5118,PAYLOAD,2024-05-10 06:22:12,15.08841027,0.0001201,53.218,324.7281,87.8287,272.2842,0.00015586,2.194e-05,0.0,0 STARLINK-5118,1 53991U 22125AD  24131.26541768  .00002194  00000-0  15586-3 0  9993,2 53991  53.2180 324.7281 0001201  87.8287 272.2842 15.08841027 88761,6917.877,95.437,540.573,538.911,0.0
53991.0,STARLINK-5118,PAYLOAD,2024-05-10 22:16:02,15.08863185,0.0001095,53.218,321.7537,88.7607,271.3511,0.0002313,3.398e-05,0.0,0 STARLINK-5118,1 53991U 22125AD  24131.92780255  .00003398  00000-0  23130-3 0  9993,2 53991  53.2180 321.7537 0001095  88.7607 271.3511 15.08863185 88783,6917.81,95.436,540.432,538.917,0.0
53991.0,STARLINK-5118,PAYLOAD,2024-05-11 12:34:28,15.08889173,0.000111,53.2174,319.0794,83.6512,276.4607,0.00062627,9.707e-05,0.0,0 STARLINK-5118,1 53991U 22125AD  24132.52394530  .00009707  00000-0  62627-3 0  9991,2 53991  53.2174 319.0794 0001110  83.6512 276.4607 15.08889173 88954,6917.73,95.434,540.363,538.827,0.0
53991.0,STARLINK-5118,PAYLOAD,2024-05-11 18:56:01,15.08862646,0.0001893,53.2192,317.8897,88.5157,271.6052,0.00012027,1.628e-05,0.0,0 STARLINK-5118,1 53991U 22125AD  24132.78891182  .00001628  00000-0  12027-3 0  9997,2 53991  53.2192 317.8897 0001893  88.5157 271.6052 15.08862646 88992,6917.811,95.436,540.986,538.367,0.0
53991.0,STARLINK-5118,PAYLOAD,2024-05-12 20:22:21,15.0870522,0.000169,53.2177,313.1298,91.5117,268.6069,-0.0019691,-0.00031375,0.0,0 STARLINK-5118,1 53991U 22125AD  24133.84886073 -.00031375  00000-0 -19691-2 0  9995,2 53991  53.2177 313.1298 0001690  91.5117 268.6069 15.08705220 89151,6918.292,95.446,541.327,538.988,0.0
53991.0,STARLINK-5118,PAYLOAD,2024-05-12 21:57:45,15.08702905,0.0001583,53.2174,312.8313,91.107,269.0103,-0.0018804,-0.00029979,0.0,0 STARLINK-5118,1 53991U 22125AD  24133.91510683 -.00029979  00000-0 -18804-2 0  9996,2 53991  53.2174 312.8313 0001583  91.1070 269.0103 15.08702905 89080,6918.299,95.446,541.26,539.069,0.0
53991.0,STARLINK-5118,PAYLOAD,2024-05-13 12:16:11,15.08807253,0.0001531,53.2197,310.1598,76.7749,283.3414,0.0013311,0.00020941,0.0,0 STARLINK-5118,1 53991U 22125AD  24134.51124202  .00020941  00000-0  13311-2 0  9997,2 53991  53.2197 310.1598 0001531  76.7749 283.3414 15.08807253 89251,6917.98,95.44,540.905,538.786,0.0
53991.0,STARLINK-5118,PAYLOAD,2024-05-13 18:37:43,15.08830399,0.0001864,53.2187,308.9679,84.5731,275.5474,0.0011824,0.00018575,0.0,0 STARLINK-5118,1 53991U 22125AD  24134.77620097  .00018575  00000-0  11824-2 0  9995,2 53991  53.2187 308.9679 0001864  84.5731 275.5474 15.08830399 89292,6917.91,95.438,541.064,538.485,0.0
53991.0,STARLINK-5118,PAYLOAD,2024-05-14 04:10:02,15.08844163,0.0002246,53.2172,307.1851,93.4441,266.6808,0.0013948,0.00021983,0.0,0 STARLINK-5118,1 53991U 22125AD  24135.17363708  .00021983  00000-0  13948-2 0  9999,2 53991  53.2172 307.1851 0002246  93.4441 266.6808 15.08844163 89275,6917.868,95.437,541.286,538.179,0.0
53991.0,STARLINK-5118,PAYLOAD,2024-05-14 18:28:29,15.08869606,0.0001515,53.2166,304.5059,81.2722,278.8442,0.0019362,0.00030686,0.0,0 STARLINK-5118,1 53991U 22125AD  24135.76978255  .00030686  00000-0  19362-2 0  9999,2 53991  53.2166 304.5059 0001515  81.2722 278.8442 15.08869606 89441,6917.79,95.436,540.703,538.607,0.0
53991.0,STARLINK-5118,PAYLOAD,2024-05-15 19:54:35,15.08890807,0.0001553,53.2177,299.7497,71.652,288.4641,-2.5599e-05,-6.96e-06,0.0,0 STARLINK-5118,1 53991U 22125AD  24136.82957348 -.00000696  00000-0 -25599-4 0  9998,2 53991  53.2177 299.7497 0001553  71.6520 288.4641 15.08890807 89608,6917.725,95.434,540.664,538.516,0.0
